{"type":"FeatureCollection","features":[{"type":"Feature","geometry":{"type":"Point","coordinates":[31.23583,30.04444]},"properties":{"id":"abbasid_caliphate","name":"Cairo","kind":"capital","start_year":750,"end_year":1258,"entity_id":"abbasid_caliphate"}},{"type":"Feature","geometry":{"type":"Point","coordinates":[38.72,14.13]},"properties":{"id":"aksumite_empire","name":"Aksum","kind":"capital","start_year":100,"end_year":940,"entity_id":"aksumite_empire"}},{"type":"Feature","geometry":{"type":"Point","coordinates":[-7.98108,31.62947]},"properties":{"id":"almohad_caliphate_iberia","name":"Marrakesh","kind":"capital","start_year":1147,"end_year":1238,"entity_id":"almohad_caliphate_iberia"}},{"type":"Feature","geometry":{"type":"Point","coordinates":[-7.98108,31.62947]},"properties":{"id":"almoravid_emirate_iberia","name":"Marrakesh","kind":"capital","start_year":1086,"end_year":1147,"entity_id":"almoravid_emirate_iberia"}},{"type":"Feature","geometry":{"type":"Point","coordinates":[105.88,21.13]},"properties":{"id":"annam","name":"Cổ Loa","kind":"capital","start_year":939,"end_year":1407,"entity_id":"annam"}},{"type":"Feature","geometry":{"type":"Point","coordinates":[44.51444,40.18139]},"properties":{"id":"armenia","name":"Yerevan","kind":"capital","start_year":700,"end_year":1200,"entity_id":"armenia"}},{"type":"Feature","geometry":{"type":"Point","coordinates":[34.9,36.91667]},"properties":{"id":"armenian_kingdom_of_cilicia","name":"Tarsus","kind":"capital","start_year":1080,"end_year":1375,"entity_id":"armenian_kingdom_of_cilicia"}},{"type":"Feature","geometry":{"type":"Point","coordinates":[47.13,40.38]},"properties":{"id":"arran","name":"Barda","kind":"capital","start_year":1000,"end_year":1100,"entity_id":"arran"}},{"type":"Feature","geometry":{"type":"Point","coordinates":[21.23,45.75972]},"properties":{"id":"avar_khaganate","name":"Timișoara","kind":"capital","start_year":567,"end_year":822,"entity_id":"avar_khaganate"}},{"type":"Feature","geometry":{"type":"Point","coordinates":[31.23583,30.04444]},"properties":{"id":"ayyubid_sultanate","name":"Cairo","kind":"capital","start_year":1171,"end_year":1341,"entity_id":"ayyubid_sultanate"}},{"type":"Feature","geometry":{"type":"Point","coordinates":[76.832,17.329]},"properties":{"id":"bahmani_sultanate","name":"Gulbarga (later Bidar)","kind":"capital","start_year":1347,"end_year":1500,"entity_id":"bahmani_sultanate"}},{"type":"Feature","geometry":{"type":"Point","coordinates":[21.43167,41.99611]},"properties":{"id":"bulgar_khanate","name":"Skopje","kind":"capital","start_year":681,"end_year":864,"entity_id":"bulgar_khanate"}},{"type":"Feature","geometry":{"type":"Point","coordinates":[44.36611,33.31528]},"properties":{"id":"buwayhid_emirates","name":"Baghdad","kind":"capital","start_year":1000,"end_year":1200,"entity_id":"buwayhid_emirates"}},{"type":"Feature","geometry":{"type":"Point","coordinates":[28.97602,41.01224]},"properties":{"id":"byzantine_empire","name":"Constantinople","kind":"capital","start_year":330,"end_year":1453,"entity_id":"byzantine_empire"}},{"type":"Feature","geometry":{"type":"Point","coordinates":[-90.06,38.66]},"properties":{"id":"cahokia","name":"Cahokia (Monks Mound complex)","kind":"capital","start_year":1050,"end_year":1350,"entity_id":"cahokia"}},{"type":"Feature","geometry":{"type":"Point","coordinates":[-4.78,37.88]},"properties":{"id":"caliphate_of_cordoba","name":"Córdoba","kind":"capital","start_year":929,"end_year":1031,"entity_id":"caliphate_of_cordoba"}},{"type":"Feature","geometry":{"type":"Point","coordinates":[6.08379,50.77621]},"properties":{"id":"carolingian_empire","name":"Aachen","kind":"capital","start_year":751,"end_year":843,"entity_id":"carolingian_empire"}},{"type":"Feature","geometry":{"type":"Point","coordinates":[80.53306,44.24]},"properties":{"id":"chagatai_khanate","name":"Almaliq","kind":"capital","start_year":1226,"end_year":1347,"entity_id":"chagatai_khanate"}},{"type":"Feature","geometry":{"type":"Point","coordinates":[77.16083,17.195]},"properties":{"id":"chalukya_empire","name":"Manyakheta","kind":"capital","start_year":543,"end_year":753,"entity_id":"chalukya_empire"}},{"type":"Feature","geometry":{"type":"Point","coordinates":[109.07507,13.92869]},"properties":{"id":"champa","name":"Vijaya","kind":"capital","start_year":500,"end_year":1500,"entity_id":"champa"}},{"type":"Feature","geometry":{"type":"Point","coordinates":[74.64,26.45]},"properties":{"id":"chauhans","name":"Ajmer","kind":"capital","start_year":600,"end_year":1192,"entity_id":"chauhans"}},{"type":"Feature","geometry":{"type":"Point","coordinates":[105.04,12.87]},"properties":{"id":"chenla","name":"Sambor Prei Kuk (Isanapura)","kind":"capital","start_year":550,"end_year":802,"entity_id":"chenla"}},{"type":"Feature","geometry":{"type":"Point","coordinates":[79.855,11.144]},"properties":{"id":"chola_state","name":"Puhar","kind":"capital","start_year":850,"end_year":1279,"entity_id":"chola_state"}},{"type":"Feature","geometry":{"type":"Point","coordinates":[9.19,45.46]},"properties":{"id":"commune_of_milan","name":"Milan","kind":"capital","start_year":1097,"end_year":1395,"entity_id":"commune_of_milan"}},{"type":"Feature","geometry":{"type":"Point","coordinates":[8.73639,41.92556]},"properties":{"id":"corsica","name":"Ajaccio","kind":"capital","start_year":1000,"end_year":1400,"entity_id":"corsica"}},{"type":"Feature","geometry":{"type":"Point","coordinates":[-0.55,47.47]},"properties":{"id":"county_of_anjou","name":"Angers","kind":"capital","start_year":870,"end_year":1480,"entity_id":"county_of_anjou"}},{"type":"Feature","geometry":{"type":"Point","coordinates":[2.17694,41.3825]},"properties":{"id":"county_of_barcelona","name":"Barcelona","kind":"capital","start_year":801,"end_year":1162,"entity_id":"county_of_barcelona"}},{"type":"Feature","geometry":{"type":"Point","coordinates":[4.07806,48.29889]},"properties":{"id":"county_of_champagne","name":"Troyes","kind":"capital","start_year":950,"end_year":1284,"entity_id":"county_of_champagne"}},{"type":"Feature","geometry":{"type":"Point","coordinates":[38.78396,37.14566]},"properties":{"id":"county_of_edessa","name":"Edessa","kind":"capital","start_year":1098,"end_year":1150,"entity_id":"county_of_edessa"}},{"type":"Feature","geometry":{"type":"Point","coordinates":[3.22417,51.20889]},"properties":{"id":"county_of_flanders","name":"Bruges","kind":"capital","start_year":862,"end_year":1384,"entity_id":"county_of_flanders"}},{"type":"Feature","geometry":{"type":"Point","coordinates":[4.31,52.08]},"properties":{"id":"county_of_holland","name":"The Hague","kind":"capital","start_year":916,"end_year":1432,"entity_id":"county_of_holland"}},{"type":"Feature","geometry":{"type":"Point","coordinates":[6.13278,49.61056]},"properties":{"id":"county_of_luxembourg","name":"Luxembourg","kind":"capital","start_year":963,"end_year":1354,"entity_id":"county_of_luxembourg"}},{"type":"Feature","geometry":{"type":"Point","coordinates":[5.92083,45.56639]},"properties":{"id":"county_of_savoy","name":"Chambéry","kind":"capital","start_year":1033,"end_year":1416,"entity_id":"county_of_savoy"}},{"type":"Feature","geometry":{"type":"Point","coordinates":[1.44333,43.60444]},"properties":{"id":"county_of_toulouse","name":"Toulouse","kind":"capital","start_year":778,"end_year":1271,"entity_id":"county_of_toulouse"}},{"type":"Feature","geometry":{"type":"Point","coordinates":[35.83444,34.43667]},"properties":{"id":"county_of_tripoli","name":"Tripoli","kind":"capital","start_year":1102,"end_year":1289,"entity_id":"county_of_tripoli"}},{"type":"Feature","geometry":{"type":"Point","coordinates":[2.17,41.39]},"properties":{"id":"crown_of_aragon","name":"Barcelona","kind":"capital","start_year":1162,"end_year":1500,"entity_id":"crown_of_aragon"}},{"type":"Feature","geometry":{"type":"Point","coordinates":[-3.70333,40.41694]},"properties":{"id":"crown_of_castile","name":"Madrid","kind":"capital","start_year":1230,"end_year":1500,"entity_id":"crown_of_castile"}},{"type":"Feature","geometry":{"type":"Point","coordinates":[100.1572,25.6906]},"properties":{"id":"dali_kingdom","name":"Dali","kind":"capital","start_year":937,"end_year":1253,"entity_id":"dali_kingdom"}},{"type":"Feature","geometry":{"type":"Point","coordinates":[9.42,55.76]},"properties":{"id":"danish_viking_polity","name":"Jelling","kind":"capital","start_year":793,"end_year":1066,"entity_id":"danish_viking_polity"}},{"type":"Feature","geometry":{"type":"Point","coordinates":[77.21667,28.66667]},"properties":{"id":"delhi_sultanate","name":"Delhi","kind":"capital","start_year":1206,"end_year":1526,"entity_id":"delhi_sultanate"}},{"type":"Feature","geometry":{"type":"Point","coordinates":[28.33922,43.43598]},"properties":{"id":"despotate_of_dobruja","name":"Kavarna","kind":"capital","start_year":1356,"end_year":1371,"entity_id":"despotate_of_dobruja"}},{"type":"Feature","geometry":{"type":"Point","coordinates":[20.85222,39.66361]},"properties":{"id":"despotate_of_epirus","name":"Ioannina","kind":"capital","start_year":1205,"end_year":1479,"entity_id":"despotate_of_epirus"}},{"type":"Feature","geometry":{"type":"Point","coordinates":[22.3673,37.074]},"properties":{"id":"despotate_of_the_morea","name":"Mystras","kind":"capital","start_year":1349,"end_year":1460,"entity_id":"despotate_of_the_morea"}},{"type":"Feature","geometry":{"type":"Point","coordinates":[14.60278,40.63333]},"properties":{"id":"duchy_of_amalfi","name":"Amalfi","kind":"capital","start_year":958,"end_year":1073,"entity_id":"duchy_of_amalfi"}},{"type":"Feature","geometry":{"type":"Point","coordinates":[1.44333,43.60444]},"properties":{"id":"duchy_of_aquitaine","name":"Toulouse","kind":"capital","start_year":781,"end_year":1453,"entity_id":"duchy_of_aquitaine"}},{"type":"Feature","geometry":{"type":"Point","coordinates":[23.72806,37.98417]},"properties":{"id":"duchy_of_athens","name":"Athens","kind":"capital","start_year":1205,"end_year":1458,"entity_id":"duchy_of_athens"}},{"type":"Feature","geometry":{"type":"Point","coordinates":[16.3725,48.20833]},"properties":{"id":"duchy_of_austria","name":"Vienna","kind":"capital","start_year":1156,"end_year":1453,"entity_id":"duchy_of_austria"}},{"type":"Feature","geometry":{"type":"Point","coordinates":[11.575,48.1375]},"properties":{"id":"duchy_of_bavaria","name":"Munich","kind":"capital","start_year":555,"end_year":1500,"entity_id":"duchy_of_bavaria"}},{"type":"Feature","geometry":{"type":"Point","coordinates":[14.78333,41.13333]},"properties":{"id":"duchy_of_benevento","name":"Benevento","kind":"capital","start_year":571,"end_year":1077,"entity_id":"duchy_of_benevento"}},{"type":"Feature","geometry":{"type":"Point","coordinates":[14.42139,50.0875]},"properties":{"id":"duchy_of_bohemia","name":"Prague","kind":"capital","start_year":870,"end_year":1198,"entity_id":"duchy_of_bohemia"}},{"type":"Feature","geometry":{"type":"Point","coordinates":[4.3525,50.84668]},"properties":{"id":"duchy_of_brabant","name":"Coop of Brussels","kind":"capital","start_year":1183,"end_year":1430,"entity_id":"duchy_of_brabant"}},{"type":"Feature","geometry":{"type":"Point","coordinates":[-1.68083,48.11417]},"properties":{"id":"duchy_of_brittany","name":"Rennes","kind":"capital","start_year":939,"end_year":1500,"entity_id":"duchy_of_brittany"}},{"type":"Feature","geometry":{"type":"Point","coordinates":[5.04194,47.32306]},"properties":{"id":"duchy_of_burgundy","name":"Dijon","kind":"capital","start_year":1363,"end_year":1477,"entity_id":"duchy_of_burgundy"}},{"type":"Feature","geometry":{"type":"Point","coordinates":[14.3,46.61667]},"properties":{"id":"duchy_of_carinthia","name":"Klagenfurt am Wörthersee","kind":"capital","start_year":976,"end_year":1500,"entity_id":"duchy_of_carinthia"}},{"type":"Feature","geometry":{"type":"Point","coordinates":[11.6175,44.83917]},"properties":{"id":"duchy_of_ferrara","name":"Ferrara","kind":"capital","start_year":1264,"end_year":1598,"entity_id":"duchy_of_ferrara"}},{"type":"Feature","geometry":{"type":"Point","coordinates":[6.18361,48.69278]},"properties":{"id":"duchy_of_lorraine","name":"Nancy","kind":"capital","start_year":855,"end_year":1766,"entity_id":"duchy_of_lorraine"}},{"type":"Feature","geometry":{"type":"Point","coordinates":[9.19,45.46694]},"properties":{"id":"duchy_of_milan","name":"Milan","kind":"capital","start_year":1395,"end_year":1500,"entity_id":"duchy_of_milan"}},{"type":"Feature","geometry":{"type":"Point","coordinates":[25.37944,37.10194]},"properties":{"id":"duchy_of_naxos","name":"Naxos","kind":"capital","start_year":1207,"end_year":1579,"entity_id":"duchy_of_naxos"}},{"type":"Feature","geometry":{"type":"Point","coordinates":[1.1025,49.44306]},"properties":{"id":"duchy_of_normandy","name":"Rouen","kind":"capital","start_year":911,"end_year":1204,"entity_id":"duchy_of_normandy"}},{"type":"Feature","geometry":{"type":"Point","coordinates":[11.63,52.13]},"properties":{"id":"duchy_of_saxony","name":"Magdeburg","kind":"capital","start_year":804,"end_year":1296,"entity_id":"duchy_of_saxony"}},{"type":"Feature","geometry":{"type":"Point","coordinates":[12.73846,42.73441]},"properties":{"id":"duchy_of_spoleto","name":"Spoleto","kind":"capital","start_year":570,"end_year":1198,"entity_id":"duchy_of_spoleto"}},{"type":"Feature","geometry":{"type":"Point","coordinates":[15.43861,47.07083]},"properties":{"id":"duchy_of_styria","name":"Graz","kind":"capital","start_year":1180,"end_year":1500,"entity_id":"duchy_of_styria"}},{"type":"Feature","geometry":{"type":"Point","coordinates":[10.9,48.37]},"properties":{"id":"duchy_of_swabia","name":"Augsburg","kind":"capital","start_year":496,"end_year":1268,"entity_id":"duchy_of_swabia"}},{"type":"Feature","geometry":{"type":"Point","coordinates":[11.25417,43.77139]},"properties":{"id":"duchy_of_tuscany","name":"Florence","kind":"capital","start_year":774,"end_year":1115,"entity_id":"duchy_of_tuscany"}},{"type":"Feature","geometry":{"type":"Point","coordinates":[100.06,13.82]},"properties":{"id":"dvaravati","name":"Nakhon Pathom","kind":"capital","start_year":500,"end_year":1100,"entity_id":"dvaravati"}},{"type":"Feature","geometry":{"type":"Point","coordinates":[-3.31,59.13]},"properties":{"id":"earldom_of_orkney","name":"Birsay","kind":"capital","start_year":870,"end_year":1468,"entity_id":"earldom_of_orkney"}},{"type":"Feature","geometry":{"type":"Point","coordinates":[8.68222,50.11056]},"properties":{"id":"east_francia","name":"Frankfurt","kind":"capital","start_year":843,"end_year":962,"entity_id":"east_francia"}},{"type":"Feature","geometry":{"type":"Point","coordinates":[112.73777,-7.24628]},"properties":{"id":"east_java","name":"Surabaya","kind":"capital","start_year":1293,"end_year":1500,"entity_id":"east_java"}},{"type":"Feature","geometry":{"type":"Point","coordinates":[-3.59078,37.18863]},"properties":{"id":"emirate_of_granada","name":"Madinat Gharnāṭah","kind":"capital","start_year":1230,"end_year":1492,"entity_id":"emirate_of_granada"}},{"type":"Feature","geometry":{"type":"Point","coordinates":[13.36126,38.11566]},"properties":{"id":"emirate_of_sicily","name":"Palermo","kind":"capital","start_year":900,"end_year":1000,"entity_id":"emirate_of_sicily"}},{"type":"Feature","geometry":{"type":"Point","coordinates":[29.7195,40.429]},"properties":{"id":"empire_of_nicaea","name":"Nicaea","kind":"capital","start_year":1204,"end_year":1261,"entity_id":"empire_of_nicaea"}},{"type":"Feature","geometry":{"type":"Point","coordinates":[39.7225,41.005]},"properties":{"id":"empire_of_trebizond","name":"Trabzon","kind":"capital","start_year":1204,"end_year":1461,"entity_id":"empire_of_trebizond"}},{"type":"Feature","geometry":{"type":"Point","coordinates":[31.23583,30.04444]},"properties":{"id":"fatimid_caliphate","name":"Cairo","kind":"capital","start_year":909,"end_year":1171,"entity_id":"fatimid_caliphate"}},{"type":"Feature","geometry":{"type":"Point","coordinates":[27.13,43.38]},"properties":{"id":"first_bulgarian_empire","name":"Pliska","kind":"capital","start_year":681,"end_year":1018,"entity_id":"first_bulgarian_empire"}},{"type":"Feature","geometry":{"type":"Point","coordinates":[105.05,11.21]},"properties":{"id":"funan","name":"Vyadhapura (Angkor Borei)","kind":"capital","start_year":50,"end_year":550,"entity_id":"funan"}},{"type":"Feature","geometry":{"type":"Point","coordinates":[-0.1969,5.55602]},"properties":{"id":"ghana","name":"Accra","kind":"capital","start_year":500,"end_year":1235,"entity_id":"ghana"}},{"type":"Feature","geometry":{"type":"Point","coordinates":[68.42333,33.54917]},"properties":{"id":"ghaznavid_emirate","name":"Ghazni","kind":"capital","start_year":1000,"end_year":1200,"entity_id":"ghaznavid_emirate"}},{"type":"Feature","geometry":{"type":"Point","coordinates":[49.03333,54.96667]},"properties":{"id":"golden_horde","name":"Bolğar","kind":"capital","start_year":1240,"end_year":1500,"entity_id":"golden_horde"}},{"type":"Feature","geometry":{"type":"Point","coordinates":[25.28,54.68722]},"properties":{"id":"grand_duchy_of_lithuania","name":"Vilnius","kind":"capital","start_year":1236,"end_year":1500,"entity_id":"grand_duchy_of_lithuania"}},{"type":"Feature","geometry":{"type":"Point","coordinates":[37.6175,55.75056]},"properties":{"id":"grand_principality_of_moscow","name":"Moscow","kind":"capital","start_year":1283,"end_year":1500,"entity_id":"grand_principality_of_moscow"}},{"type":"Feature","geometry":{"type":"Point","coordinates":[85.14,25.61]},"properties":{"id":"gupta_empire","name":"Pataliputra","kind":"capital","start_year":320,"end_year":550,"entity_id":"gupta_empire"}},{"type":"Feature","geometry":{"type":"Point","coordinates":[48.62,15.93]},"properties":{"id":"hadramaut","name":"Shibam","kind":"capital","start_year":500,"end_year":1500,"entity_id":"hadramaut"}},{"type":"Feature","geometry":{"type":"Point","coordinates":[10.18,36.80083]},"properties":{"id":"hafsid_sultanate","name":"Tunis","kind":"capital","start_year":1229,"end_year":1574,"entity_id":"hafsid_sultanate"}},{"type":"Feature","geometry":{"type":"Point","coordinates":[110.32,20.02]},"properties":{"id":"hainan","name":"Haikou","kind":"capital","start_year":500,"end_year":1500,"entity_id":"hainan"}},{"type":"Feature","geometry":{"type":"Point","coordinates":[10.68639,53.86972]},"properties":{"id":"hanseatic_league","name":"Lübeck","kind":"capital","start_year":1159,"end_year":1500,"entity_id":"hanseatic_league"}},{"type":"Feature","geometry":{"type":"Point","coordinates":[99.00722,18.58028]},"properties":{"id":"haripunjaya","name":"Lamphun","kind":"capital","start_year":661,"end_year":1292,"entity_id":"haripunjaya"}},{"type":"Feature","geometry":{"type":"Point","coordinates":[6.08379,50.77621]},"properties":{"id":"holy_roman_empire","name":"Aachen","kind":"capital","start_year":962,"end_year":1500,"entity_id":"holy_roman_empire"}},{"type":"Feature","geometry":{"type":"Point","coordinates":[-21.125,64.25806]},"properties":{"id":"iceland_commonwealth","name":"Thingvellir National Park","kind":"capital","start_year":930,"end_year":1262,"entity_id":"iceland_commonwealth"}},{"type":"Feature","geometry":{"type":"Point","coordinates":[48.7975,36.43472]},"properties":{"id":"ilkhanate","name":"Soltaniyeh","kind":"capital","start_year":1256,"end_year":1335,"entity_id":"ilkhanate"}},{"type":"Feature","geometry":{"type":"Point","coordinates":[135.77,35.01]},"properties":{"id":"imperial_japan_fujiwara","name":"Heian-kyō (Kyoto)","kind":"capital","start_year":794,"end_year":1185,"entity_id":"imperial_japan_fujiwara"}},{"type":"Feature","geometry":{"type":"Point","coordinates":[116.4074,39.9042]},"properties":{"id":"jin_dynasty_jurchen","name":"Zhongdu","kind":"capital","start_year":1115,"end_year":1234,"entity_id":"jin_dynasty_jurchen"}},{"type":"Feature","geometry":{"type":"Point","coordinates":[8.59,39.9]},"properties":{"id":"judicate_of_arborea","name":"Oristano","kind":"capital","start_year":900,"end_year":1420,"entity_id":"judicate_of_arborea"}},{"type":"Feature","geometry":{"type":"Point","coordinates":[9.10952,39.21489]},"properties":{"id":"judicate_of_cagliari","name":"Cagliari","kind":"capital","start_year":900,"end_year":1258,"entity_id":"judicate_of_cagliari"}},{"type":"Feature","geometry":{"type":"Point","coordinates":[85.89,20.46]},"properties":{"id":"kalinga","name":"Cuttack","kind":"capital","start_year":500,"end_year":1434,"entity_id":"kalinga"}},{"type":"Feature","geometry":{"type":"Point","coordinates":[10.73889,59.91333]},"properties":{"id":"kalmar_union","name":"Oslo","kind":"capital","start_year":1397,"end_year":1500,"entity_id":"kalmar_union"}},{"type":"Feature","geometry":{"type":"Point","coordinates":[139.546,35.319]},"properties":{"id":"kamakura_shogunate","name":"Kamakura","kind":"capital","start_year":1185,"end_year":1333,"entity_id":"kamakura_shogunate"}},{"type":"Feature","geometry":{"type":"Point","coordinates":[14.6,14.5]},"properties":{"id":"kanem","name":"Njimi","kind":"capital","start_year":700,"end_year":1376,"entity_id":"kanem"}},{"type":"Feature","geometry":{"type":"Point","coordinates":[33.86083,44.75278]},"properties":{"id":"khanate_of_crimea","name":"Bakhchysarai","kind":"capital","start_year":1441,"end_year":1500,"entity_id":"khanate_of_crimea"}},{"type":"Feature","geometry":{"type":"Point","coordinates":[49.11444,55.79083]},"properties":{"id":"khanate_of_kazan","name":"Kazan","kind":"capital","start_year":1438,"end_year":1552,"entity_id":"khanate_of_kazan"}},{"type":"Feature","geometry":{"type":"Point","coordinates":[103.86667,13.4125]},"properties":{"id":"khmer_empire","name":"Yasodharapura","kind":"capital","start_year":802,"end_year":1431,"entity_id":"khmer_empire"}},{"type":"Feature","geometry":{"type":"Point","coordinates":[30.52361,50.45]},"properties":{"id":"kievan_rus","name":"Kyiv","kind":"capital","start_year":882,"end_year":1240,"entity_id":"kievan_rus"}},{"type":"Feature","geometry":{"type":"Point","coordinates":[-3.4,56.42]},"properties":{"id":"kingdom_of_alba","name":"Scone","kind":"capital","start_year":843,"end_year":1286,"entity_id":"kingdom_of_alba"}},{"type":"Feature","geometry":{"type":"Point","coordinates":[-0.41107,42.14093]},"properties":{"id":"kingdom_of_aragon","name":"Huesca","kind":"capital","start_year":1035,"end_year":1162,"entity_id":"kingdom_of_aragon"}},{"type":"Feature","geometry":{"type":"Point","coordinates":[-5.85028,43.3625]},"properties":{"id":"kingdom_of_asturias","name":"Oviedo","kind":"capital","start_year":718,"end_year":910,"entity_id":"kingdom_of_asturias"}},{"type":"Feature","geometry":{"type":"Point","coordinates":[14.42139,50.0875]},"properties":{"id":"kingdom_of_bohemia","name":"Prague","kind":"capital","start_year":1198,"end_year":1500,"entity_id":"kingdom_of_bohemia"}},{"type":"Feature","geometry":{"type":"Point","coordinates":[18.23805,44.13668]},"properties":{"id":"kingdom_of_bosnia","name":"Bobovac","kind":"capital","start_year":1180,"end_year":1463,"entity_id":"kingdom_of_bosnia"}},{"type":"Feature","geometry":{"type":"Point","coordinates":[4.63,43.68]},"properties":{"id":"kingdom_of_burgundy","name":"Arles","kind":"capital","start_year":888,"end_year":1032,"entity_id":"kingdom_of_burgundy"}},{"type":"Feature","geometry":{"type":"Point","coordinates":[-3.69972,42.34083]},"properties":{"id":"kingdom_of_castile","name":"Burgos","kind":"capital","start_year":1065,"end_year":1230,"entity_id":"kingdom_of_castile"}},{"type":"Feature","geometry":{"type":"Point","coordinates":[-8.39,53.79]},"properties":{"id":"kingdom_of_connacht","name":"Rathcroghan","kind":"capital","start_year":500,"end_year":1224,"entity_id":"kingdom_of_connacht"}},{"type":"Feature","geometry":{"type":"Point","coordinates":[15.89556,43.73389]},"properties":{"id":"kingdom_of_croatia","name":"Šibenik","kind":"capital","start_year":925,"end_year":1102,"entity_id":"kingdom_of_croatia"}},{"type":"Feature","geometry":{"type":"Point","coordinates":[33.365,35.1725]},"properties":{"id":"kingdom_of_cyprus","name":"Nicosia","kind":"capital","start_year":1192,"end_year":1489,"entity_id":"kingdom_of_cyprus"}},{"type":"Feature","geometry":{"type":"Point","coordinates":[-5.49,56.08]},"properties":{"id":"kingdom_of_dal_riata","name":"Dunadd","kind":"capital","start_year":500,"end_year":839,"entity_id":"kingdom_of_dal_riata"}},{"type":"Feature","geometry":{"type":"Point","coordinates":[-4.013,51.883]},"properties":{"id":"kingdom_of_deheubarth","name":"Dinefwr","kind":"capital","start_year":920,"end_year":1283,"entity_id":"kingdom_of_deheubarth"}},{"type":"Feature","geometry":{"type":"Point","coordinates":[12.56889,55.67611]},"properties":{"id":"kingdom_of_denmark","name":"Copenhagen","kind":"capital","start_year":965,"end_year":1500,"entity_id":"kingdom_of_denmark"}},{"type":"Feature","geometry":{"type":"Point","coordinates":[-6.26028,53.34972]},"properties":{"id":"kingdom_of_dublin","name":"Dublin","kind":"capital","start_year":853,"end_year":1171,"entity_id":"kingdom_of_dublin"}},{"type":"Feature","geometry":{"type":"Point","coordinates":[0.71,52.24]},"properties":{"id":"kingdom_of_east_anglia","name":"Bury St Edmunds","kind":"capital","start_year":520,"end_year":918,"entity_id":"kingdom_of_east_anglia"}},{"type":"Feature","geometry":{"type":"Point","coordinates":[-0.1275,51.50722]},"properties":{"id":"kingdom_of_england","name":"London","kind":"capital","start_year":927,"end_year":1500,"entity_id":"kingdom_of_england"}},{"type":"Feature","geometry":{"type":"Point","coordinates":[2.35222,48.85667]},"properties":{"id":"kingdom_of_france","name":"Paris","kind":"capital","start_year":987,"end_year":1500,"entity_id":"kingdom_of_france"}},{"type":"Feature","geometry":{"type":"Point","coordinates":[-8.40003,43.37386]},"properties":{"id":"kingdom_of_galicia","name":"A Coruña","kind":"capital","start_year":910,"end_year":1833,"entity_id":"kingdom_of_galicia"}},{"type":"Feature","geometry":{"type":"Point","coordinates":[44.7925,41.7225]},"properties":{"id":"kingdom_of_georgia","name":"Tbilisi","kind":"capital","start_year":888,"end_year":1490,"entity_id":"kingdom_of_georgia"}},{"type":"Feature","geometry":{"type":"Point","coordinates":[-4.46,53.2]},"properties":{"id":"kingdom_of_gwynedd","name":"Aberffraw","kind":"capital","start_year":500,"end_year":1283,"entity_id":"kingdom_of_gwynedd"}},{"type":"Feature","geometry":{"type":"Point","coordinates":[19.04083,47.49833]},"properties":{"id":"kingdom_of_hungary","name":"Budapest","kind":"capital","start_year":895,"end_year":1500,"entity_id":"kingdom_of_hungary"}},{"type":"Feature","geometry":{"type":"Point","coordinates":[-6.61,53.58]},"properties":{"id":"kingdom_of_ireland_high","name":"Tara","kind":"capital","start_year":500,"end_year":1198,"entity_id":"kingdom_of_ireland_high"}},{"type":"Feature","geometry":{"type":"Point","coordinates":[35.23416,31.77668]},"properties":{"id":"kingdom_of_jerusalem","name":"Jerusalem","kind":"capital","start_year":1099,"end_year":1291,"entity_id":"kingdom_of_jerusalem"}},{"type":"Feature","geometry":{"type":"Point","coordinates":[-1.08,53.96]},"properties":{"id":"kingdom_of_jorvik","name":"York","kind":"capital","start_year":866,"end_year":954,"entity_id":"kingdom_of_jorvik"}},{"type":"Feature","geometry":{"type":"Point","coordinates":[1.0775,51.27833]},"properties":{"id":"kingdom_of_kent","name":"Canterbury","kind":"capital","start_year":455,"end_year":825,"entity_id":"kingdom_of_kent"}},{"type":"Feature","geometry":{"type":"Point","coordinates":[-6.5,52.59]},"properties":{"id":"kingdom_of_leinster","name":"Ferns","kind":"capital","start_year":500,"end_year":1171,"entity_id":"kingdom_of_leinster"}},{"type":"Feature","geometry":{"type":"Point","coordinates":[-5.56694,42.59889]},"properties":{"id":"kingdom_of_leon","name":"León","kind":"capital","start_year":910,"end_year":1230,"entity_id":"kingdom_of_leon"}},{"type":"Feature","geometry":{"type":"Point","coordinates":[2.89472,42.6975]},"properties":{"id":"kingdom_of_majorca","name":"Perpignan","kind":"capital","start_year":1276,"end_year":1344,"entity_id":"kingdom_of_majorca"}},{"type":"Feature","geometry":{"type":"Point","coordinates":[-4.525,54.235]},"properties":{"id":"kingdom_of_mann_isles","name":"Isle of Man","kind":"capital","start_year":900,"end_year":1265,"entity_id":"kingdom_of_mann_isles"}},{"type":"Feature","geometry":{"type":"Point","coordinates":[-6.61,53.58]},"properties":{"id":"kingdom_of_meath","name":"Tara","kind":"capital","start_year":500,"end_year":1172,"entity_id":"kingdom_of_meath"}},{"type":"Feature","geometry":{"type":"Point","coordinates":[-1.695,52.63389]},"properties":{"id":"kingdom_of_mercia","name":"Tamworth","kind":"capital","start_year":527,"end_year":918,"entity_id":"kingdom_of_mercia"}},{"type":"Feature","geometry":{"type":"Point","coordinates":[-7.89,52.51]},"properties":{"id":"kingdom_of_munster","name":"Cashel","kind":"capital","start_year":500,"end_year":1118,"entity_id":"kingdom_of_munster"}},{"type":"Feature","geometry":{"type":"Point","coordinates":[14.24861,40.83583]},"properties":{"id":"kingdom_of_naples","name":"Naples","kind":"capital","start_year":1282,"end_year":1500,"entity_id":"kingdom_of_naples"}},{"type":"Feature","geometry":{"type":"Point","coordinates":[-1.65,42.81667]},"properties":{"id":"kingdom_of_navarre","name":"Pamplona","kind":"capital","start_year":824,"end_year":1500,"entity_id":"kingdom_of_navarre"}},{"type":"Feature","geometry":{"type":"Point","coordinates":[-1.71,55.61]},"properties":{"id":"kingdom_of_northumbria","name":"Bamburgh","kind":"capital","start_year":654,"end_year":954,"entity_id":"kingdom_of_northumbria"}},{"type":"Feature","geometry":{"type":"Point","coordinates":[10.4,63.43]},"properties":{"id":"kingdom_of_norway","name":"Trondheim","kind":"capital","start_year":872,"end_year":1397,"entity_id":"kingdom_of_norway"}},{"type":"Feature","geometry":{"type":"Point","coordinates":[94.86,21.1725]},"properties":{"id":"kingdom_of_pagan","name":"Bagan","kind":"capital","start_year":849,"end_year":1297,"entity_id":"kingdom_of_pagan"}},{"type":"Feature","geometry":{"type":"Point","coordinates":[21.01111,52.23]},"properties":{"id":"kingdom_of_poland_jagiellonian","name":"Warsaw","kind":"capital","start_year":1385,"end_year":1500,"entity_id":"kingdom_of_poland_jagiellonian"}},{"type":"Feature","geometry":{"type":"Point","coordinates":[17.6,52.53333]},"properties":{"id":"kingdom_of_poland_piast","name":"Gniezno","kind":"capital","start_year":1025,"end_year":1385,"entity_id":"kingdom_of_poland_piast"}},{"type":"Feature","geometry":{"type":"Point","coordinates":[-9.13902,38.70804]},"properties":{"id":"kingdom_of_portugal","name":"Lisbon","kind":"capital","start_year":1139,"end_year":1500,"entity_id":"kingdom_of_portugal"}},{"type":"Feature","geometry":{"type":"Point","coordinates":[-3.18917,55.95333]},"properties":{"id":"kingdom_of_scotland","name":"Edinburgh","kind":"capital","start_year":843,"end_year":1500,"entity_id":"kingdom_of_scotland"}},{"type":"Feature","geometry":{"type":"Point","coordinates":[15.08727,37.50267]},"properties":{"id":"kingdom_of_sicily_aragonese","name":"Catania","kind":"capital","start_year":1282,"end_year":1500,"entity_id":"kingdom_of_sicily_aragonese"}},{"type":"Feature","geometry":{"type":"Point","coordinates":[15.08727,37.50267]},"properties":{"id":"kingdom_of_sicily_hohenstaufen","name":"Catania","kind":"capital","start_year":1198,"end_year":1268,"entity_id":"kingdom_of_sicily_hohenstaufen"}},{"type":"Feature","geometry":{"type":"Point","coordinates":[15.08727,37.50267]},"properties":{"id":"kingdom_of_sicily_norman","name":"Catania","kind":"capital","start_year":1130,"end_year":1198,"entity_id":"kingdom_of_sicily_norman"}},{"type":"Feature","geometry":{"type":"Point","coordinates":[-4.54722,55.94861]},"properties":{"id":"kingdom_of_strathclyde","name":"Dumbarton","kind":"capital","start_year":500,"end_year":1018,"entity_id":"kingdom_of_strathclyde"}},{"type":"Feature","geometry":{"type":"Point","coordinates":[17.72,59.62]},"properties":{"id":"kingdom_of_sweden","name":"Sigtuna","kind":"capital","start_year":970,"end_year":1500,"entity_id":"kingdom_of_sweden"}},{"type":"Feature","geometry":{"type":"Point","coordinates":[22.93556,40.64028]},"properties":{"id":"kingdom_of_thessalonica","name":"Thessaloniki","kind":"capital","start_year":1205,"end_year":1224,"entity_id":"kingdom_of_thessalonica"}},{"type":"Feature","geometry":{"type":"Point","coordinates":[-6.65,54.35]},"properties":{"id":"kingdom_of_ulster","name":"Armagh","kind":"capital","start_year":500,"end_year":1241,"entity_id":"kingdom_of_ulster"}},{"type":"Feature","geometry":{"type":"Point","coordinates":[-1.30861,51.06333]},"properties":{"id":"kingdom_of_wessex","name":"Winchester","kind":"capital","start_year":519,"end_year":927,"entity_id":"kingdom_of_wessex"}},{"type":"Feature","geometry":{"type":"Point","coordinates":[35.22,31.78]},"properties":{"id":"knights_hospitaller_order","name":"Jerusalem","kind":"capital","start_year":1099,"end_year":1500,"entity_id":"knights_hospitaller_order"}},{"type":"Feature","geometry":{"type":"Point","coordinates":[28.22,36.43]},"properties":{"id":"knights_hospitaller_rhodes","name":"Rhodes","kind":"capital","start_year":1099,"end_year":1500,"entity_id":"knights_hospitaller_rhodes"}},{"type":"Feature","geometry":{"type":"Point","coordinates":[126.55278,37.97167]},"properties":{"id":"korea","name":"Kaesong","kind":"capital","start_year":918,"end_year":1392,"entity_id":"korea"}},{"type":"Feature","geometry":{"type":"Point","coordinates":[28.97602,41.01224]},"properties":{"id":"latin_empire_constantinople","name":"Constantinople","kind":"capital","start_year":1204,"end_year":1261,"entity_id":"latin_empire_constantinople"}},{"type":"Feature","geometry":{"type":"Point","coordinates":[119.15556,41.56972]},"properties":{"id":"liao","name":"Zhongjing","kind":"capital","start_year":907,"end_year":1125,"entity_id":"liao"}},{"type":"Feature","geometry":{"type":"Point","coordinates":[25.27,57.31]},"properties":{"id":"livonian_order_state","name":"Wenden (Cēsis)","kind":"capital","start_year":1228,"end_year":1500,"entity_id":"livonian_order_state"}},{"type":"Feature","geometry":{"type":"Point","coordinates":[9.155,45.18528]},"properties":{"id":"lombard_kingdom","name":"Pavia","kind":"capital","start_year":568,"end_year":774,"entity_id":"lombard_kingdom"}},{"type":"Feature","geometry":{"type":"Point","coordinates":[-6.26028,53.34972]},"properties":{"id":"lordship_of_ireland","name":"Dublin","kind":"capital","start_year":1177,"end_year":1500,"entity_id":"lordship_of_ireland"}},{"type":"Feature","geometry":{"type":"Point","coordinates":[18.41081,47.19102]},"properties":{"id":"magyars","name":"Székesfehérvár","kind":"capital","start_year":700,"end_year":1000,"entity_id":"magyars"}},{"type":"Feature","geometry":{"type":"Point","coordinates":[30.74389,18.22306]},"properties":{"id":"makkura","name":"Old Dongola","kind":"capital","start_year":500,"end_year":1312,"entity_id":"makkura"}},{"type":"Feature","geometry":{"type":"Point","coordinates":[-7.99222,12.64583]},"properties":{"id":"mali","name":"Bamako","kind":"capital","start_year":1235,"end_year":1500,"entity_id":"mali"}},{"type":"Feature","geometry":{"type":"Point","coordinates":[31.23583,30.04444]},"properties":{"id":"mamluk_sultanate","name":"Cairo","kind":"capital","start_year":1250,"end_year":1517,"entity_id":"mamluk_sultanate"}},{"type":"Feature","geometry":{"type":"Point","coordinates":[13.38333,52.51667]},"properties":{"id":"margraviate_of_brandenburg","name":"Berlin","kind":"capital","start_year":1157,"end_year":1618,"entity_id":"margraviate_of_brandenburg"}},{"type":"Feature","geometry":{"type":"Point","coordinates":[-5.00333,34.04333]},"properties":{"id":"marinid_dynasty","name":"Fez","kind":"capital","start_year":1244,"end_year":1465,"entity_id":"marinid_dynasty"}},{"type":"Feature","geometry":{"type":"Point","coordinates":[-89.4583,20.6286]},"properties":{"id":"mayapan","name":"Mayapan","kind":"capital","start_year":1221,"end_year":1441,"entity_id":"mayapan"}},{"type":"Feature","geometry":{"type":"Point","coordinates":[2.35222,48.85667]},"properties":{"id":"merovingian_kingdom","name":"Paris","kind":"capital","start_year":481,"end_year":751,"entity_id":"merovingian_kingdom"}},{"type":"Feature","geometry":{"type":"Point","coordinates":[6.08379,50.77621]},"properties":{"id":"middle_francia","name":"Aachen","kind":"capital","start_year":843,"end_year":870,"entity_id":"middle_francia"}},{"type":"Feature","geometry":{"type":"Point","coordinates":[116.4074,39.9042]},"properties":{"id":"ming_dynasty","name":"Beijing","kind":"capital","start_year":1368,"end_year":1500,"entity_id":"ming_dynasty"}},{"type":"Feature","geometry":{"type":"Point","coordinates":[102.82379,47.19753]},"properties":{"id":"mongol_empire","name":"Karakorum","kind":"capital","start_year":1206,"end_year":1368,"entity_id":"mongol_empire"}},{"type":"Feature","geometry":{"type":"Point","coordinates":[135.7681,35.0116]},"properties":{"id":"muromachi_shogunate","name":"Kyoto","kind":"capital","start_year":1336,"end_year":1500,"entity_id":"muromachi_shogunate"}},{"type":"Feature","geometry":{"type":"Point","coordinates":[58.41,23.59]},"properties":{"id":"muscat","name":"Muscat","kind":"capital","start_year":500,"end_year":1500,"entity_id":"muscat"}},{"type":"Feature","geometry":{"type":"Point","coordinates":[100.30028,25.68111]},"properties":{"id":"nan_chao","name":"Dali","kind":"capital","start_year":738,"end_year":902,"entity_id":"nan_chao"}},{"type":"Feature","geometry":{"type":"Point","coordinates":[8.76306,55.32722]},"properties":{"id":"north_sea_empire","name":"Ribe","kind":"capital","start_year":1016,"end_year":1042,"entity_id":"north_sea_empire"}},{"type":"Feature","geometry":{"type":"Point","coordinates":[9.155,45.18528]},"properties":{"id":"ostrogothic_kingdom","name":"Pavia","kind":"capital","start_year":493,"end_year":553,"entity_id":"ostrogothic_kingdom"}},{"type":"Feature","geometry":{"type":"Point","coordinates":[28.96028,41.01]},"properties":{"id":"ottoman_beylik","name":"Istanbul","kind":"capital","start_year":1299,"end_year":1453,"entity_id":"ottoman_beylik"}},{"type":"Feature","geometry":{"type":"Point","coordinates":[28.96028,41.01]},"properties":{"id":"ottoman_empire","name":"Istanbul","kind":"capital","start_year":1299,"end_year":1500,"entity_id":"ottoman_empire"}},{"type":"Feature","geometry":{"type":"Point","coordinates":[85.144,25.611]},"properties":{"id":"palas","name":"Pataliputra","kind":"capital","start_year":750,"end_year":1174,"entity_id":"palas"}},{"type":"Feature","geometry":{"type":"Point","coordinates":[12.48278,41.89306]},"properties":{"id":"papal_states","name":"Rome","kind":"capital","start_year":754,"end_year":1500,"entity_id":"papal_states"}},{"type":"Feature","geometry":{"type":"Point","coordinates":[21.01111,52.23]},"properties":{"id":"poland","name":"Warsaw","kind":"capital","start_year":1000,"end_year":1300,"entity_id":"poland"}},{"type":"Feature","geometry":{"type":"Point","coordinates":[14.55,53.43]},"properties":{"id":"pomerania","name":"Szczecin","kind":"capital","start_year":1000,"end_year":1637,"entity_id":"pomerania"}},{"type":"Feature","geometry":{"type":"Point","coordinates":[79.92,27.07]},"properties":{"id":"pratiharas","name":"Kannauj","kind":"capital","start_year":730,"end_year":1036,"entity_id":"pratiharas"}},{"type":"Feature","geometry":{"type":"Point","coordinates":[21.26667,37.90583]},"properties":{"id":"principality_of_achaea","name":"Andravida","kind":"capital","start_year":1205,"end_year":1432,"entity_id":"principality_of_achaea"}},{"type":"Feature","geometry":{"type":"Point","coordinates":[36.15,36.2]},"properties":{"id":"principality_of_antioch","name":"Antioch","kind":"capital","start_year":1098,"end_year":1268,"entity_id":"principality_of_antioch"}},{"type":"Feature","geometry":{"type":"Point","coordinates":[24.32222,50.84806]},"properties":{"id":"principality_of_galicia_volhynia","name":"Volodymyr","kind":"capital","start_year":1199,"end_year":1349,"entity_id":"principality_of_galicia_volhynia"}},{"type":"Feature","geometry":{"type":"Point","coordinates":[26.25556,47.65139]},"properties":{"id":"principality_of_moldavia","name":"Suceava","kind":"capital","start_year":1346,"end_year":1500,"entity_id":"principality_of_moldavia"}},{"type":"Feature","geometry":{"type":"Point","coordinates":[31.27579,58.52099]},"properties":{"id":"principality_of_novgorod","name":"Veliky Novgorod","kind":"capital","start_year":1136,"end_year":1478,"entity_id":"principality_of_novgorod"}},{"type":"Feature","geometry":{"type":"Point","coordinates":[28.34,57.82]},"properties":{"id":"principality_of_pskov","name":"Pskov","kind":"capital","start_year":1348,"end_year":1510,"entity_id":"principality_of_pskov"}},{"type":"Feature","geometry":{"type":"Point","coordinates":[35.92193,56.85783]},"properties":{"id":"principality_of_tver","name":"Tver","kind":"capital","start_year":1246,"end_year":1485,"entity_id":"principality_of_tver"}},{"type":"Feature","geometry":{"type":"Point","coordinates":[40.40583,56.12861]},"properties":{"id":"principality_of_vladimir_suzdal","name":"Vladimir","kind":"capital","start_year":1157,"end_year":1331,"entity_id":"principality_of_vladimir_suzdal"}},{"type":"Feature","geometry":{"type":"Point","coordinates":[-4.46,53.2]},"properties":{"id":"principality_of_wales","name":"Aberffraw","kind":"capital","start_year":1216,"end_year":1542,"entity_id":"principality_of_wales"}},{"type":"Feature","geometry":{"type":"Point","coordinates":[26.09778,44.41336]},"properties":{"id":"principality_of_wallachia","name":"Bucharest","kind":"capital","start_year":1330,"end_year":1500,"entity_id":"principality_of_wallachia"}},{"type":"Feature","geometry":{"type":"Point","coordinates":[19.51214,42.06813]},"properties":{"id":"principality_of_zeta","name":"Shkodër","kind":"capital","start_year":1186,"end_year":1499,"entity_id":"principality_of_zeta"}},{"type":"Feature","geometry":{"type":"Point","coordinates":[11.25417,43.77139]},"properties":{"id":"republic_of_florence","name":"Florence","kind":"capital","start_year":1115,"end_year":1500,"entity_id":"republic_of_florence"}},{"type":"Feature","geometry":{"type":"Point","coordinates":[8.93398,44.40719]},"properties":{"id":"republic_of_genoa","name":"Genoa","kind":"capital","start_year":1099,"end_year":1500,"entity_id":"republic_of_genoa"}},{"type":"Feature","geometry":{"type":"Point","coordinates":[10.4,43.71667]},"properties":{"id":"republic_of_pisa","name":"Pisa","kind":"capital","start_year":1000,"end_year":1406,"entity_id":"republic_of_pisa"}},{"type":"Feature","geometry":{"type":"Point","coordinates":[18.10833,42.64028]},"properties":{"id":"republic_of_ragusa","name":"Dubrovnik","kind":"capital","start_year":1358,"end_year":1808,"entity_id":"republic_of_ragusa"}},{"type":"Feature","geometry":{"type":"Point","coordinates":[11.33139,43.31833]},"properties":{"id":"republic_of_siena","name":"Siena","kind":"capital","start_year":1125,"end_year":1555,"entity_id":"republic_of_siena"}},{"type":"Feature","geometry":{"type":"Point","coordinates":[12.33194,45.43972]},"properties":{"id":"republic_of_venice","name":"Venice","kind":"capital","start_year":697,"end_year":1500,"entity_id":"republic_of_venice"}},{"type":"Feature","geometry":{"type":"Point","coordinates":[9.10952,39.21489]},"properties":{"id":"sardinia","name":"Cagliari","kind":"capital","start_year":1000,"end_year":1400,"entity_id":"sardinia"}},{"type":"Feature","geometry":{"type":"Point","coordinates":[25.62829,43.07865]},"properties":{"id":"second_bulgarian_empire","name":"Veliko Tarnovo","kind":"capital","start_year":1185,"end_year":1396,"entity_id":"second_bulgarian_empire"}},{"type":"Feature","geometry":{"type":"Point","coordinates":[51.66,32.65]},"properties":{"id":"seljuk_sultanate","name":"Isfahan","kind":"capital","start_year":1037,"end_year":1194,"entity_id":"seljuk_sultanate"}},{"type":"Feature","geometry":{"type":"Point","coordinates":[88.36574,23.40882]},"properties":{"id":"senas","name":"Nabadwip","kind":"capital","start_year":1070,"end_year":1230,"entity_id":"senas"}},{"type":"Feature","geometry":{"type":"Point","coordinates":[20.45694,44.81778]},"properties":{"id":"serbia","name":"Belgrade","kind":"capital","start_year":900,"end_year":1279,"entity_id":"serbia"}},{"type":"Feature","geometry":{"type":"Point","coordinates":[20.45694,44.81778]},"properties":{"id":"serbian_despotate","name":"Belgrade","kind":"capital","start_year":1402,"end_year":1459,"entity_id":"serbian_despotate"}},{"type":"Feature","geometry":{"type":"Point","coordinates":[21.43167,41.99611]},"properties":{"id":"serbian_empire","name":"Skopje","kind":"capital","start_year":1346,"end_year":1371,"entity_id":"serbian_empire"}},{"type":"Feature","geometry":{"type":"Point","coordinates":[20.5,43.13]},"properties":{"id":"serbian_kingdom_nemanjic","name":"Ras","kind":"capital","start_year":1217,"end_year":1346,"entity_id":"serbian_kingdom_nemanjic"}},{"type":"Feature","geometry":{"type":"Point","coordinates":[48.65,40.63]},"properties":{"id":"shirvan","name":"Shamakhi","kind":"capital","start_year":1000,"end_year":1100,"entity_id":"shirvan"}},{"type":"Feature","geometry":{"type":"Point","coordinates":[66.96,39.65]},"properties":{"id":"sogdiana","name":"Samarkand","kind":"capital","start_year":500,"end_year":850,"entity_id":"sogdiana"}},{"type":"Feature","geometry":{"type":"Point","coordinates":[39.5,12.6]},"properties":{"id":"solomonic_ethiopia","name":"Roving (no fixed capital before 1636)","kind":"capital","start_year":1270,"end_year":1500,"entity_id":"solomonic_ethiopia"}},{"type":"Feature","geometry":{"type":"Point","coordinates":[-0.05,16.27]},"properties":{"id":"songhai_empire","name":"Gao","kind":"capital","start_year":1340,"end_year":1500,"entity_id":"songhai_empire"}},{"type":"Feature","geometry":{"type":"Point","coordinates":[114.34028,34.79361]},"properties":{"id":"song_empire","name":"Bianliang","kind":"capital","start_year":960,"end_year":1279,"entity_id":"song_empire"}},{"type":"Feature","geometry":{"type":"Point","coordinates":[104.76444,-2.98333]},"properties":{"id":"srivijaya_empire","name":"Palembang","kind":"capital","start_year":671,"end_year":1288,"entity_id":"srivijaya_empire"}},{"type":"Feature","geometry":{"type":"Point","coordinates":[-8.41667,41.53333]},"properties":{"id":"suebi_kingdom","name":"Braga","kind":"capital","start_year":409,"end_year":585,"entity_id":"suebi_kingdom"}},{"type":"Feature","geometry":{"type":"Point","coordinates":[32.5161,37.84705]},"properties":{"id":"sultanate_of_rum","name":"Konya","kind":"capital","start_year":1077,"end_year":1307,"entity_id":"sultanate_of_rum"}},{"type":"Feature","geometry":{"type":"Point","coordinates":[7.45,46.95]},"properties":{"id":"swiss_confederation","name":"Bern","kind":"capital","start_year":1291,"end_year":1499,"entity_id":"swiss_confederation"}},{"type":"Feature","geometry":{"type":"Point","coordinates":[-14.58384,16.58356]},"properties":{"id":"takrur","name":"Morfil","kind":"capital","start_year":800,"end_year":1285,"entity_id":"takrur"}},{"type":"Feature","geometry":{"type":"Point","coordinates":[108.94,34.27]},"properties":{"id":"tang_dynasty","name":"Chang'an","kind":"capital","start_year":618,"end_year":907,"entity_id":"tang_dynasty"}},{"type":"Feature","geometry":{"type":"Point","coordinates":[19.02778,54.03972]},"properties":{"id":"teutonic_order_state","name":"Malbork Castle","kind":"capital","start_year":1230,"end_year":1500,"entity_id":"teutonic_order_state"}},{"type":"Feature","geometry":{"type":"Point","coordinates":[91.14082,29.64576]},"properties":{"id":"tibet","name":"Lhasa","kind":"capital","start_year":618,"end_year":842,"entity_id":"tibet"}},{"type":"Feature","geometry":{"type":"Point","coordinates":[66.97583,39.65472]},"properties":{"id":"timurid_empire","name":"Samarkand","kind":"capital","start_year":1370,"end_year":1507,"entity_id":"timurid_empire"}},{"type":"Feature","geometry":{"type":"Point","coordinates":[36.292,33.513]},"properties":{"id":"umayyad_caliphate","name":"Damascus","kind":"capital","start_year":661,"end_year":750,"entity_id":"umayyad_caliphate"}},{"type":"Feature","geometry":{"type":"Point","coordinates":[-4.78,37.88]},"properties":{"id":"umayyad_emirate_cordoba","name":"Córdoba","kind":"capital","start_year":711,"end_year":929,"entity_id":"umayyad_emirate_cordoba"}},{"type":"Feature","geometry":{"type":"Point","coordinates":[76.462,15.335]},"properties":{"id":"vijayanagara_empire","name":"Vijayanagara (Hampi)","kind":"capital","start_year":1336,"end_year":1500,"entity_id":"vijayanagara_empire"}},{"type":"Feature","geometry":{"type":"Point","coordinates":[2.17694,41.3825]},"properties":{"id":"visigothic_kingdom","name":"Barcelona","kind":"capital","start_year":418,"end_year":711,"entity_id":"visigothic_kingdom"}},{"type":"Feature","geometry":{"type":"Point","coordinates":[49.03333,54.96667]},"properties":{"id":"volga_bulgaria","name":"Bolğar","kind":"capital","start_year":895,"end_year":1240,"entity_id":"volga_bulgaria"}},{"type":"Feature","geometry":{"type":"Point","coordinates":[2.35222,48.85667]},"properties":{"id":"west_francia","name":"Paris","kind":"capital","start_year":843,"end_year":987,"entity_id":"west_francia"}},{"type":"Feature","geometry":{"type":"Point","coordinates":[106.225,38.485]},"properties":{"id":"xixia","name":"Yinchuan","kind":"capital","start_year":1038,"end_year":1227,"entity_id":"xixia"}},{"type":"Feature","geometry":{"type":"Point","coordinates":[44.2,15.35]},"properties":{"id":"yemen","name":"Sanaa","kind":"capital","start_year":819,"end_year":1500,"entity_id":"yemen"}},{"type":"Feature","geometry":{"type":"Point","coordinates":[116.4074,39.9042]},"properties":{"id":"yuan_dynasty","name":"Dadu","kind":"capital","start_year":1271,"end_year":1368,"entity_id":"yuan_dynasty"}},{"type":"Feature","geometry":{"type":"Point","coordinates":[39.0473,12.0318]},"properties":{"id":"zagwe_dynasty","name":"Lalibela (Roha)","kind":"capital","start_year":1137,"end_year":1270,"entity_id":"zagwe_dynasty"}}]}