{
  "type": "FeatureCollection",
  "features": [
    {
      "type": "Feature",
      "geometry": { "type": "Point", "coordinates": [-5.0, 36.5] },
      "properties": { "id": "mare-hispanicum", "label": "MARE HISPANICVM" }
    },
    {
      "type": "Feature",
      "geometry": { "type": "Point", "coordinates": [12.5, 38.5] },
      "properties": { "id": "mare-nostrum", "label": "MARE NOSTRVM" }
    },
    {
      "type": "Feature",
      "geometry": { "type": "Point", "coordinates": [20.0, 39.5] },
      "properties": { "id": "mare-adriaticum", "label": "MARE ADRIATICVM" }
    },
    {
      "type": "Feature",
      "geometry": { "type": "Point", "coordinates": [28.5, 41.5] },
      "properties": { "id": "mare-euxinum", "label": "MARE EVXINVM" }
    },
    {
      "type": "Feature",
      "geometry": { "type": "Point", "coordinates": [-15.0, 55.0] },
      "properties": { "id": "oceanus-britannicus", "label": "OCEANVS BRITANNICUS" }
    },
    {
      "type": "Feature",
      "geometry": { "type": "Point", "coordinates": [5.0, 57.5] },
      "properties": { "id": "mare-germanicum", "label": "MARE GERMANICVM" }
    },
    {
      "type": "Feature",
      "geometry": { "type": "Point", "coordinates": [20.0, 58.0] },
      "properties": { "id": "mare-balticum", "label": "MARE BALTICUM" }
    },
    {
      "type": "Feature",
      "geometry": { "type": "Point", "coordinates": [35.0, 36.0] },
      "properties": { "id": "mare-levantinum", "label": "MARE LEVANTINVM" }
    },
    {
      "type": "Feature",
      "geometry": { "type": "Point", "coordinates": [42.0, 28.0] },
      "properties": { "id": "mare-rubrum", "label": "MARE RVBRVM" }
    },
    {
      "type": "Feature",
      "geometry": { "type": "Point", "coordinates": [52.0, 25.0] },
      "properties": { "id": "sinus-persicus", "label": "SINVS PERSICVS" }
    }
  ]
}
