{"type":"FeatureCollection","features":[{"type":"Feature","geometry":{"type":"LineString","coordinates":[[28.97,41.01],[32.86,39.93],[32.49,37.87],[36.16,36.2],[37.16,36.2],[38.79,37.16],[43.13,36.34],[44.4,33.34],[51.68,32.66],[58.8,36.22],[62.19,37.68],[64.42,39.77],[66.96,39.65]]},"properties":{"id":"silk_road_south","name":"Silk Road (Southern Branch)","kind":"trade","start_year":null,"end_year":null}},{"type":"Feature","geometry":{"type":"LineString","coordinates":[[35.37,45.03],[47,47.5],[60.64,41.55],[64.42,39.77],[66.96,39.65]]},"properties":{"id":"silk_road_steppe","name":"Silk Road (Steppe / Northern Branch)","kind":"trade","start_year":null,"end_year":null}},{"type":"Feature","geometry":{"type":"LineString","coordinates":[[1.08,51.28],[-0.13,51.51],[1.85,50.95],[4.03,49.26],[7.59,47.56],[7.17,45.87],[7.32,45.74],[9.16,45.19],[10.5,43.84],[12.5,41.9]]},"properties":{"id":"via_francigena","name":"Via Francigena","kind":"trade","start_year":null,"end_year":null}},{"type":"Feature","geometry":{"type":"LineString","coordinates":[[2.35,48.85],[0.69,47.39],[-0.58,44.84],[-1.32,43.01],[-1.64,42.82],[-2.45,42.47],[-3.7,42.34],[-5.57,42.6],[-8.54,42.88]]},"properties":{"id":"camino_frances","name":"Camino de Santiago (French Way)","kind":"trade","start_year":null,"end_year":null}},{"type":"Feature","geometry":{"type":"LineString","coordinates":[[18.65,54.35],[17.03,51.11],[19.94,50.06],[16.37,48.21],[14.51,46.05],[13.37,45.77],[12.33,45.44]]},"properties":{"id":"amber_road","name":"Amber Road","kind":"trade","start_year":null,"end_year":null}},{"type":"Feature","geometry":{"type":"LineString","coordinates":[[10,53.55],[6.96,50.94],[8.68,50.11],[7.75,48.58],[7.59,47.56],[4.85,45.75],[5.37,43.3]]},"properties":{"id":"rhine_rhone","name":"Rhine–Rhône Corridor","kind":"trade","start_year":null,"end_year":null}},{"type":"Feature","geometry":{"type":"LineString","coordinates":[[-0.13,51.51],[3.22,51.21],[3.72,51.05],[2.35,48.85],[4.08,48.3],[4.85,45.75],[8.93,44.41]]},"properties":{"id":"champagne_fairs","name":"Champagne Fairs Route","kind":"trade","start_year":null,"end_year":null}},{"type":"Feature","geometry":{"type":"LineString","coordinates":[[19.5,41.33],[20.8,41.12],[22.94,40.64],[24.4,40.94],[28.97,41.01]]},"properties":{"id":"via_egnatia","name":"Via Egnatia","kind":"trade","start_year":null,"end_year":null}},{"type":"Feature","geometry":{"type":"LineString","coordinates":[[12.33,45.44],[8.93,44.41],[5.37,43.3],[2.16,41.39],[-0.38,39.47],[-2.47,36.84],[-6.3,36.53],[-9.14,38.72]]},"properties":{"id":"med_western","name":"Mediterranean — Western Arc","kind":"trade","start_year":null,"end_year":null}},{"type":"Feature","geometry":{"type":"LineString","coordinates":[[8.93,44.41],[13.36,38.12],[10.16,36.82],[10.76,34.74],[13.18,32.89],[20.07,32.12],[29.92,31.2]]},"properties":{"id":"med_north_africa","name":"Mediterranean — North African Coast","kind":"trade","start_year":null,"end_year":null}},{"type":"Feature","geometry":{"type":"LineString","coordinates":[[12.33,45.44],[18.09,42.65],[19.92,39.62],[21.7,36.82],[25.13,35.34],[28.22,36.43],[33.95,35.12],[35.07,32.93],[29.92,31.2]]},"properties":{"id":"med_levant","name":"Mediterranean — Levant Circuit","kind":"trade","start_year":null,"end_year":null}},{"type":"Feature","geometry":{"type":"LineString","coordinates":[[12.33,45.44],[19.5,41.33],[22.94,40.64],[26.68,40.41],[28.97,41.01]]},"properties":{"id":"aegean_route","name":"Aegean — Venice to Constantinople","kind":"trade","start_year":null,"end_year":null}},{"type":"Feature","geometry":{"type":"LineString","coordinates":[[28.97,41.01],[28.65,43.35],[33.52,44.6],[35.37,45.03],[39.43,47.11],[40.08,43.08],[39.72,41]]},"properties":{"id":"pontic_route","name":"Black Sea — Pontic Route","kind":"trade","start_year":null,"end_year":null}},{"type":"Feature","geometry":{"type":"LineString","coordinates":[[-2.6,51.45],[-4.49,48.38],[-2.76,47.66],[-8.4,43.37],[-8.63,41.16],[-9.14,38.72],[-6.3,36.53],[-5.4,35.9]]},"properties":{"id":"atlantic_coast","name":"Atlantic Coast Route","kind":"trade","start_year":null,"end_year":null}},{"type":"Feature","geometry":{"type":"LineString","coordinates":[[29.92,31.2],[32.55,29.97],[35.5,27],[39.19,21.49],[42,15],[45.04,12.78],[50,10],[56.24,26.57]]},"properties":{"id":"red_sea_indian_ocean","name":"Red Sea & Indian Ocean","kind":"trade","start_year":null,"end_year":null}},{"type":"Feature","geometry":{"type":"LineString","coordinates":[[-0.13,51.51],[3.22,51.21],[3.72,51.05],[4.4,51.22],[6.96,50.94],[10,53.55],[10.69,53.87]]},"properties":{"id":"north_sea_channel","name":"North Sea & English Channel","kind":"trade","start_year":null,"end_year":null}},{"type":"Feature","geometry":{"type":"LineString","coordinates":[[5.32,60.39],[18.3,57.64],[24.75,59.44],[31.28,58.52]]},"properties":{"id":"baltic_hanseatic_north","name":"Baltic — Northern Arc (Hanseatic)","kind":"trade","start_year":null,"end_year":null}},{"type":"Feature","geometry":{"type":"LineString","coordinates":[[10.69,53.87],[11.46,53.89],[12.14,54.09],[13.09,54.31],[18.65,54.35],[24.11,56.95],[24.75,59.44]]},"properties":{"id":"baltic_hanseatic_south","name":"Baltic — Southern Arc (Hanseatic)","kind":"trade","start_year":null,"end_year":null}},{"type":"Feature","geometry":{"type":"LineString","coordinates":[[18.07,59.33],[18.3,57.64],[25,60],[32.3,60],[31.28,58.52],[32.05,54.78],[30.52,50.45],[32.6,46.63],[32,46],[33.5,43],[28.97,41.01]]},"properties":{"id":"varangian_route","name":"Varangian Route (Dnieper)","kind":"trade","start_year":null,"end_year":null}},{"type":"Feature","geometry":{"type":"LineString","coordinates":[[32.3,60],[39.85,57.63],[49.07,54.96],[48,47],[50,46.5],[48.29,42.06],[44.83,41.69]]},"properties":{"id":"volga_route","name":"Volga Trade Route","kind":"trade","start_year":null,"end_year":null}},{"type":"Feature","geometry":{"type":"LineString","coordinates":[[-4.27,31.27],[-4.5,27.4],[-2.15,22.7],[-3.01,16.77],[-0.05,16.27],[-2.3,13.45]]},"properties":{"id":"trans_saharan_gold_salt","name":"Trans-Saharan Gold-Salt Route","kind":"trade","start_year":null,"end_year":null}},{"type":"Feature","geometry":{"type":"LineString","coordinates":[[39.2,-6.16],[45.04,12.78],[56.28,27.1],[67,22.3],[75.78,11.26],[79.85,6.97],[100.27,4.59],[106.85,-6.2]]},"properties":{"id":"indian_ocean_monsoon","name":"Indian Ocean Monsoon Trade","kind":"trade","start_year":null,"end_year":null}},{"type":"Feature","geometry":{"type":"LineString","coordinates":[[66.96,39.65],[75,39.78],[80.27,41.13],[84.12,41.74],[86.18,41.95],[89.18,42.95],[94.66,40.14],[99.62,37.79],[103.79,36.06],[108.94,34.27]]},"properties":{"id":"silk_road_sogdian_branch","name":"Silk Road (Sogdian Eastern Branch)","kind":"trade","start_year":null,"end_year":null}},{"type":"Feature","geometry":{"type":"LineString","coordinates":[[104.07,30.65],[102.97,29.99],[99.1,30.05],[95.36,31.62],[91.13,29.65],[88.88,29.27],[89.65,27.5]]},"properties":{"id":"tea_horse_road","name":"Tea-Horse Road","kind":"trade","start_year":null,"end_year":null}},{"type":"Feature","geometry":{"type":"LineString","coordinates":[[-3.01,16.77],[-4.96,14.82],[-4.55,13.91],[2.11,13.51],[-0.05,16.27]]},"properties":{"id":"niger_river_trade","name":"Niger River Trade Network","kind":"trade","start_year":null,"end_year":null}}]}